FLOCK 3P-62             
1 42036U 17008CS  17301.56851471  .00004552  00000-0  19337-3 0  9992
2 42036  97.4813   2.6222 0009654 107.8810 252.3480 15.23530064 38006
FLOCK 3P-38             
1 42037U 17008CT  17301.57985882  .00002160  00000-0  93663-4 0  9996
2 42037  97.4813   2.6031 0009359 106.4518 253.7748 15.23418356 38783
FLOCK 3P-39             
1 42038U 17008CU  17301.57824343  .00002714  00000-0  11692-3 0  9997
2 42038  97.4809   2.5942 0009602 106.4783 253.7510 15.23420746 38732
FLOCK 3P-15             
1 42039U 17008CV  17301.51683183  .00002098  00000-0  91160-4 0  9991
2 42039  97.4812   2.5335 0009491 106.5983 253.6297 15.23391281 38004
FLOCK 3P-13             
1 42040U 17008CW  17301.57698445  .00002375  00000-0  10266-3 0  9991
2 42040  97.4815   2.6121 0009288 107.9297 252.2953 15.23436111 38006
FLOCK 3P-55             
1 42041U 17008CX  17301.55493963  .00004213  00000-0  17992-3 0  9994
2 42041  97.4814   2.6372 0009147 110.6647 249.5571 15.23399245 38841
FLOCK 3P-56             
1 42042U 17008CY  17301.60639616  .00004451  00000-0  18777-3 0  9994
2 42042  97.4810   2.7104 0009056 110.1275 250.0937 15.23784774 38649
FLOCK 3P-81             
1 42043U 17008CZ  17301.60327455  .00002552  00000-0  11019-3 0  9992
2 42043  97.4840   2.6647 0010024  92.5356 267.7029 15.23396166 38027
FLOCK 3P-87             
1 42044U 17008DA  17301.61219302  .00002177  00000-0  94452-4 0  9991
2 42044  97.4834   2.6399 0010190  90.0139 270.2265 15.23383082 38171
FLOCK 3P-29             
1 42045U 17008DB  17301.61377705  .00002518  00000-0  10881-3 0  9996
2 42045  97.4817   2.5753 0009844  87.7151 272.5213 15.23385350 38029
FLOCK 3P-82             
1 42046U 17008DC  17301.61442328  .00004326  00000-0  18423-3 0  9990
2 42046  97.4835   2.6435 0010149  90.8949 269.3451 15.23472636 38075
FLOCK 3P-78             
1 42047U 17008DD  17301.61166500  .00002589  00000-0  11185-3 0  9993
2 42047  97.4839   2.6499 0010108  89.8690 270.3705 15.23359903 38004
FLOCK 3P-74             
1 42048U 17008DE  17301.62005354  .00002566  00000-0  11082-3 0  9995
2 42048  97.4840   2.6473 0010374  90.1613 270.0812 15.23381302 38008
FLOCK 3P-31             
1 42049U 17008DF  17301.42453347  .00002383  00000-0  10323-3 0  9997
2 42049  97.4817   2.3713 0009954  89.0805 271.1572 15.23351162 37431
FLOCK 3P-83             
1 42050U 17008DG  17301.42545587  .00002301  00000-0  99732-4 0  9999
2 42050  97.4836   2.4363 0010258  91.6571 268.5841 15.23370014 38701
FLOCK 3P-72             
1 42051U 17008DH  17301.60188133  .00002096  00000-0  91053-4 0  9999
2 42051  97.4842   2.6758 0009772  90.6204 269.6153 15.23397295 36324
LEMUR-2-REDFERN-GOES    
1 42059U 98067LA  17301.62517183  .00029180  00000-0  31509-3 0  9996
2 42059  51.6369  85.2857 0005883  75.4530 284.7117 15.63370047 36842
LEMUR-2-TRUTNA          
1 42067U 98067LC  17301.57467410  .00062894  00000-0  49912-3 0  9992
2 42067  51.6355  81.1771 0003451  63.0717 297.0633 15.70656604 36726
LEMUR-2-AUSTINTACIOUS   
1 42068U 98067LD  17301.54603193  .00034529  00000-0  34768-3 0  9997
2 42068  51.6374  84.7591 0005210  65.1955 294.9582 15.65060625 36779
LEMUR-2-TRUTNAHD        
1 42069U 98067LE  17301.59206476  .00030480  00000-0  32119-3 0  9996
2 42069  51.6379  85.0822 0005095  73.3482 286.8072 15.63973425 36822
HAVELSAT                
1 42700U 98067LH  17301.58099029  .00025643  00000-0  30860-3 0  9997
2 42700  51.6381  89.4990 0005070 106.3485 253.8066 15.60642130 25732
SOMP 2                  
1 42701U 98067LJ  17301.60316474  .00024982  00000-0  30619-3 0  9994
2 42701  51.6380  89.6501 0005073 105.9578 254.1975 15.60178113 25720
COLUMBIA                
1 42702U 98067LK  17301.59131395  .00078078  00000-0  69304-3 0  9998
2 42702  51.6357  86.5545 0001921  93.6993 266.4223 15.67854626 25696
SGSAT                   
1 42703U 98067LL  17301.62518660  .00052471  00000-0  52695-3 0  9991
2 42703  51.6357  87.5293 0001433 348.7142  11.3821 15.64947449 25678
CXBN-2                  
1 42704U 98067LM  17301.60879838  .00025511  00000-0  31147-3 0  9991
2 42704  51.6385  89.6882 0001312  41.9541 318.1552 15.60276539 25656
ICECUBE                 
1 42705U 98067LN  17301.62279820  .00029441  00000-0  33917-3 0  9992
2 42705  51.6407  89.0481 0001961  37.3810 322.7320 15.61710821 25729
PHOENIX                 
1 42706U 98067LP  17301.46475192  .00023955  00000-0  29143-3 0  9995
2 42706  51.6380  90.2277 0000799  81.1665 278.9419 15.60409618 25628
X-CUBESAT               
1 42707U 98067LQ  17301.58968024  .00025684  00000-0  31001-3 0  9997
2 42707  51.6369  89.5524 0000756  78.5851 281.5228 15.60573430 25635
QBEE50-LTU-OC           
1 42708U 98067LR  17301.59590651  .00025050  00000-0  30430-3 0  9998
2 42708  51.6371  89.5948 0000812  77.2269 282.8815 15.60420312 25592
ALTAIR PATHFINDER       
1 42711U 98067LS  17301.56974234  .00017163  00000-0  22718-3 0  9998
2 42711  51.6376  90.9207 0003864  37.4965 322.6296 15.58410492 25283
SHARC                   
1 42712U 98067LT  17301.58022157  .00007464  00000-0  10471-3 0  9995
2 42712  51.6394  91.0010 0002149  49.8492 310.2688 15.57861333 25523
ZA-AEROSAT              
1 42713U 98067LU  17301.58255215  .00023061  00000-0  29168-3 0  9993
2 42713  51.6379  90.2617 0001752  26.0376 334.0705 15.59407443 25296
LINK                    
1 42714U 98067LV  17301.57952496  .00035299  00000-0  40698-3 0  9995
2 42714  51.6363  89.4808 0001463  12.0627 348.0402 15.61595849 25419
CSUNSAT 1               
1 42715U 98067LW  17301.58429185  .00022574  00000-0  28367-3 0  9992
2 42715  51.6383  90.2701 0003732  23.6420 336.4744 15.59589938 25299
UPSAT                   
1 42716U 98067LX  17301.56731940  .00032468  00000-0  37866-3 0  9993
2 42716  51.6378  89.4087 0003303 112.8429 247.2914 15.61336527 25436
SPACECUBE               
1 42717U 98067LY  17301.61006583  .00026414  00000-0  32210-3 0  9990
2 42717  51.6378  89.6935 0003548 110.6833 249.4541 15.60284163 24679
HOOPOE                  
1 42718U 98067LZ  17301.58854303  .00029497  00000-0  35174-3 0  9994
2 42718  51.6378  89.5495 0003398 109.4152 250.7209 15.60807495 24678
CHALLENGER              
1 42721U 98067MA  17301.55576612  .00042424  00000-0  47173-3 0  9996
2 42721  51.6368  89.3199 0005129  83.9075 276.2504 15.62433280 24371
NJUST-1                 
1 42722U 98067MB  17301.61226704  .00021056  00000-0  26960-3 0  9997
2 42722  51.6381  90.4564 0006505  86.8518 273.3219 15.59127398 24365
UNSW-ECO                
1 42723U 98067MC  17301.62115414  .00031188  00000-0  37290-3 0  9999
2 42723  51.6387  89.7688 0005658  86.4933 273.6708 15.60697079 24350
DUTHSAT                 
1 42724U 98067MD  17301.57288509  .00040063  00000-0  45163-3 0  9990
2 42724  51.6377  89.4432 0004452  88.1608 271.9896 15.62109080 24297
LILACSAT-1              
1 42725U 98067ME  17301.60337551  .00024345  00000-0  30492-3 0  9991
2 42725  51.6381  90.3998 0005280  89.3672 270.7926 15.59622114 24289
NSIGHT-1                
1 42726U 98067MF  17301.61548090  .00014241  00000-0  19621-3 0  9990
2 42726  51.6394  91.2346 0006260  91.5549 268.6161 15.57491141 24265
SNUSAT-1                
1 42727U 98067MG  17301.60153277  .00022224  00000-0  28006-3 0  9996
2 42727  51.6371  90.3743 0006734  47.0646 313.0910 15.59510899 24230
QBITO                   
1 42728U 98067MH  17301.57347778  .00025987  00000-0  31883-3 0  9990
2 42728  51.6395  90.2101 0002780 100.9315 259.1992 15.60136090 24074
AALTO-2                 
1 42729U 98067MJ  17301.57304535  .00027163  00000-0  33235-3 0  9996
2 42729  51.6385  90.1989 0002695 100.1507 259.9791 15.60181709 24080
SUSAT                   
1 42730U 98067MK  17301.58405985  .00025331  00000-0  31374-3 0  9997
2 42730  51.6380  90.2690 0002860  96.0614 264.0705 15.59901128 24088
I-INSPIRE II            
1 42731U 98067ML  17301.61038006  .00031720  00000-0  37513-3 0  9998
2 42731  51.6372  89.6815 0005818  29.3857 330.7463 15.60973388 24132
POLYITAN-2-SAU          
1 42732U 98067MM  17301.50269335  .00026116  00000-0  31805-3 0  9999
2 42732  51.6372  90.4643 0006000  29.5515 330.5817 15.60313909 24115
SNUSAT-1B               
1 42733U 98067MN  17301.58394833  .00024336  00000-0  30195-3 0  9993
2 42733  51.6378  90.2601 0006092  33.9056 326.2325 15.59866366 24129
EXALTA-1                
1 42734U 98067MP  17301.61424441  .00031835  00000-0  37852-3 0  9996
2 42734  51.6371  89.7093 0007091  58.1897 301.9786 15.60821941 24081
AOXIANG-1               
1 42735U 98067MQ  17301.60692604  .00021536  00000-0  27440-3 0  9993
2 42735  51.6374  90.4171 0007018  83.2734 276.9057 15.59238267 25498
BEEAGLESAT              
1 42736U 98067MR  17301.59727066  .00023232  00000-0  29176-3 0  9996
2 42736  51.6375  90.3525 0006759  81.6535 278.5224 15.59572020 24181
ATLANTIS                
1 42737U 98067MS  17301.56892694  .00068569  00000-0  65529-3 0  9998
2 42737  51.6348  87.8952 0003887  67.2508 292.8898 15.66073843 24101
LEMUR-2-ANGELA          
1 42752U 17019B   17301.50757936  .00004410  00000-0  17112-3 0  9996
2 42752  51.6400 121.5688 0011255 100.0209 260.2041 15.28108712 21671
LEMUR-2-JENNYBARNA      
1 42753U 17019C   17301.49679365  .00004618  00000-0  17713-3 0  9991
2 42753  51.6408 121.5004 0011221  99.4985 260.7264 15.28379788 21616
LEMUR-2-ROBMOORE        
1 42754U 17019D   17301.57971879  .00004361  00000-0  16976-3 0  9991
2 42754  51.6391 121.2974 0011241 103.0570 257.1665 15.28025625 21663
LEMUR-2-SPIROVISION     
1 42755U 17019E   17301.50562475  .00005225  00000-0  19935-3 0  9991
2 42755  51.6400 121.5530 0011218 102.7377 257.4857 15.28271592 21540
UCLSAT                  
1 42765U 17036A   17301.78031656  .00002836  00000-0  13024-3 0  9991
2 42765  97.4344   0.0027 0012173 160.2171 199.9460 15.21150979 19523
